PANDORA
1 67395U 80229J   26060.59292824  .00000000  00000-0  37770-3 0    06
2 67395  97.8014  60.9454 0006506 117.4356 337.6513 14.87845919    07
